[{"OBJECT_NAME":"STARLINK-3752","OBJECT_ID":"2022-041BD","EPOCH":"2026-03-09T07:46:05.901888","MEAN_MOTION":15.08838456,"ECCENTRICITY":0.00014,"INCLINATION":53.2169,"RA_OF_ASC_NODE":90.7155,"ARG_OF_PERICENTER":84.1617,"MEAN_ANOMALY":275.9535,"EPHEMERIS_TYPE":0,"CLASSIFICATION_TYPE":"U","NORAD_CAT_ID":52312,"ELEMENT_SET_NO":999,"REV_AT_EPOCH":21581,"BSTAR":5.193817e-5,"MEAN_MOTION_DOT":5.39e-6,"MEAN_MOTION_DDOT":0},{"OBJECT_NAME":"DISKSAT A","OBJECT_ID":"2025-305D","EPOCH":"2026-03-09T13:08:58.223040","MEAN_MOTION":15.07741062,"ECCENTRICITY":0.0004082,"INCLINATION":45.0023,"RA_OF_ASC_NODE":251.6019,"ARG_OF_PERICENTER":318.1929,"MEAN_ANOMALY":41.8634,"EPHEMERIS_TYPE":0,"CLASSIFICATION_TYPE":"U","NORAD_CAT_ID":67222,"ELEMENT_SET_NO":999,"REV_AT_EPOCH":1226,"BSTAR":0.00090452,"MEAN_MOTION_DOT":0.00013824,"MEAN_MOTION_DDOT":0}]
